NORAD_CAT_ID,OBJECT_NAME,OBJECT_TYPE,EPOCH,MEAN_MOTION,ECCENTRICITY,INCLINATION,RA_OF_ASC_NODE,ARG_OF_PERICENTER,MEAN_ANOMALY,BSTAR,MEAN_MOTION_DOT,MEAN_MOTION_DDOT,TLE_LINE0,TLE_LINE1,TLE_LINE2,SEMIMAJOR_AXIS,PERIOD,APOGEE,PERIGEE,DECAYED
55646.0,STARLINK-5104,PAYLOAD,2023-08-26 11:59:14,14.98327891,0.0003059,70.0017,359.8448,269.3862,90.6947,-5.5997e-05,-7.61e-06,0.0,0 STARLINK-5104,1 55646U 23021U   23238.49947289 -.00000761  00000-0 -55997-4 0  9999,2 55646  70.0017 359.8448 0003059 269.3862  90.6947 14.98327891 30052,6950.199,96.107,574.19,569.938,0.0
55646.0,STARLINK-5104,PAYLOAD,2023-08-26 18:23:46,14.98328449,0.0003039,70.0019,359.1714,269.8635,90.2176,-7.0123e-06,-1.77e-06,0.0,0 STARLINK-5104,1 55646U 23021U   23238.76651157 -.00000177  00000-0 -70123-5 0  9995,2 55646  70.0019 359.1714 0003039 269.8635  90.2176 14.98328449 30098,6950.198,96.107,574.175,569.951,0.0
55646.0,STARLINK-5104,PAYLOAD,2023-08-27 08:48:59,14.98329746,0.0003035,70.0019,357.657,272.1874,87.8938,-1.8144e-05,-3.09e-06,0.0,0 STARLINK-5104,1 55646U 23021U   23239.36735092 -.00000309  00000-0 -18144-4 0  9994,2 55646  70.0019 357.6570 0003035 272.1874  87.8938 14.98329746 30188,6950.194,96.107,574.168,569.949,0.0
55646.0,STARLINK-5104,PAYLOAD,2023-08-27 16:49:39,14.98330022,0.0003052,70.0018,356.8154,271.6518,88.4292,-1.3749e-05,-2.57e-06,0.0,0 STARLINK-5104,1 55646U 23021U   23239.70115063 -.00000257  00000-0 -13749-4 0  9990,2 55646  70.0018 356.8154 0003052 271.6518  88.4292 14.98330022 29934,6950.193,96.107,574.179,569.937,0.0
55646.0,STARLINK-5104,PAYLOAD,2023-08-27 20:01:55,14.98335102,0.0003195,70.0015,356.4785,274.4105,85.669,3.3346e-05,3.05e-06,0.0,0 STARLINK-5104,1 55646U 23021U   23239.83466606  .00000305  00000-0  33346-4 0  9993,2 55646  70.0015 356.4785 0003195 274.4105  85.6690 14.98335102 30250,6950.177,96.107,574.263,569.822,0.0
55646.0,STARLINK-5104,PAYLOAD,2023-08-28 20:03:56,14.98334145,0.0003272,70.0012,353.9537,271.5068,88.5716,6.9494e-05,7.36e-06,0.0,0 STARLINK-5104,1 55646U 23021U   23240.83606560  .00000736  00000-0  69494-4 0  9991,2 55646  70.0012 353.9537 0003272 271.5068  88.5716 14.98334145 30400,6950.18,96.107,574.319,569.771,0.0
55646.0,STARLINK-5104,PAYLOAD,2023-08-29 00:52:20,14.98332452,0.0003323,70.001,353.4487,271.2673,88.8105,-6.5471e-06,-1.71e-06,0.0,0 STARLINK-5104,1 55646U 23021U   23241.03634822 -.00000171  00000-0 -65471-5 0  9993,2 55646  70.0010 353.4487 0003323 271.2673  88.8105 14.98332452 30137,6950.185,96.107,574.36,569.741,0.0
55646.0,STARLINK-5104,PAYLOAD,2023-08-29 16:53:40,14.98333203,0.0003308,70.001,351.7651,270.1287,89.9493,4.7507e-05,4.74e-06,0.0,0 STARLINK-5104,1 55646U 23021U   23241.70394653  .00000474  00000-0  47507-4 0  9995,2 55646  70.0010 351.7651 0003308 270.1287  89.9493 14.98333203 30534,6950.183,96.107,574.347,569.749,0.0
55646.0,STARLINK-5104,PAYLOAD,2023-08-30 08:55:01,14.98329742,0.0003172,70.0013,350.0823,267.2477,92.832,5.484e-07,-8.6e-07,0.0,0 STARLINK-5104,1 55646U 23021U   23242.37154935 -.00000086  00000-0  54840-6 0  9996,2 55646  70.0013 350.0823 0003172 267.2477  92.8320 14.98329742 30330,6950.194,96.107,574.263,569.854,0.0
55646.0,STARLINK-5104,PAYLOAD,2023-08-30 16:55:42,14.98331081,0.0003268,70.001,349.2404,270.252,89.8265,1.9979e-05,1.45e-06,0.0,0 STARLINK-5104,1 55646U 23021U   23242.70534781  .00000145  00000-0  19979-4 0  9991,2 55646  70.0010 349.2404 0003268 270.2520  89.8265 14.98331081 30682,6950.19,96.107,574.326,569.783,0.0
55646.0,STARLINK-5104,PAYLOAD,2023-08-31 00:56:22,14.98331797,0.0003333,70.0008,348.4,274.2329,85.8449,-6.9808e-05,-9.26e-06,0.0,0 STARLINK-5104,1 55646U 23021U   23243.03914942 -.00000926  00000-0 -69808-4 0  9994,2 55646  70.0008 348.4000 0003333 274.2329  85.8449 14.98331797 30736,6950.187,96.107,574.369,569.736,0.0
55646.0,STARLINK-5104,PAYLOAD,2023-09-01 23:24:15,14.98351108,0.0003196,70.0,343.5187,277.9653,82.1143,-0.00031621,-3.866e-05,0.0,0 STARLINK-5104,1 55646U 23021U   23244.97518050 -.00003866  00000-0 -31621-3 0  9995,2 55646  70.0000 343.5187 0003196 277.9653  82.1143 14.98351108 30725,6950.128,96.106,574.214,569.771,0.0
55646.0,STARLINK-5104,PAYLOAD,2023-09-02 05:48:48,14.98333128,0.0003502,70.0,342.8453,271.281,88.7948,1.9519e-05,1.4e-06,0.0,0 STARLINK-5104,1 55646U 23021U   23245.24222246  .00000140  00000-0  19519-4 0  9998,2 55646  70.0000 342.8453 0003502 271.2810  88.7948 14.98333128 30767,6950.183,96.107,574.482,569.614,0.0
55646.0,STARLINK-5104,PAYLOAD,2023-09-02 17:01:44,14.98339137,0.0003027,70.0029,341.6665,276.3062,83.7752,1.5944e-05,9.7e-07,0.0,0 STARLINK-5104,1 55646U 23021U   23245.70954108  .00000097  00000-0  15944-4 0  9997,2 55646  70.0029 341.6665 0003027 276.3062  83.7752 14.98339137 31133,6950.165,96.106,574.133,569.926,0.0
55646.0,STARLINK-5104,PAYLOAD,2023-09-03 12:15:21,14.98335222,0.0003061,70.0026,339.6482,271.917,88.1639,-5.1828e-05,-7.11e-06,0.0,0 STARLINK-5104,1 55646U 23021U   23246.51066206 -.00000711  00000-0 -51828-4 0  9996,2 55646  70.0026 339.6482 0003061 271.9170  88.1639 14.98335222 31250,6950.177,96.107,574.169,569.914,0.0
55646.0,STARLINK-5104,PAYLOAD,2023-09-04 05:52:50,14.98327329,0.0003118,70.0017,337.7959,269.9582,90.122,-9.1283e-05,-1.182e-05,0.0,0 STARLINK-5104,1 55646U 23021U   23247.24502682 -.00001182  00000-0 -91283-4 0  9992,2 55646  70.0017 337.7959 0003118 269.9582  90.1220 14.98327329 31062,6950.201,96.107,574.233,569.899,0.0
55646.0,STARLINK-5104,PAYLOAD,2023-09-05 05:54:52,14.98310676,0.0003841,70.0021,335.2706,264.9661,95.106,-0.00011931,-1.516e-05,0.0,0 STARLINK-5104,1 55646U 23021U   23248.24643770 -.00001516  00000-0 -11931-3 0  9999,2 55646  70.0021 335.2706 0003841 264.9661  95.1060 14.98310676 31217,6950.253,96.108,574.787,569.448,0.0
55646.0,STARLINK-5104,PAYLOAD,2023-09-06 05:56:52,14.98325216,0.000494,70.0014,332.7459,269.7433,90.316,0.00012913,1.448e-05,0.0,0 STARLINK-5104,1 55646U 23021U   23249.24782453  .00001448  00000-0  12913-3 0  9995,2 55646  70.0014 332.7459 0004940 269.7433  90.3160 14.98325216 31367,6950.208,96.107,575.506,568.639,0.0
55646.0,STARLINK-5104,PAYLOAD,2023-09-06 17:09:48,14.9832975,0.0003183,70.0017,331.568,266.4027,93.6768,0.00014245,1.607e-05,0.0,0 STARLINK-5104,1 55646U 23021U   23249.71514202  .00001607  00000-0  14245-3 0  9999,2 55646  70.0017 331.5680 0003183 266.4027  93.6768 14.98329750 31732,6950.194,96.107,574.271,569.846,0.0
55646.0,STARLINK-5104,PAYLOAD,2023-09-07 07:35:01,14.98322766,0.0003607,70.0019,330.0532,267.2773,92.7973,0.00013769,1.55e-05,0.0,0 STARLINK-5104,1 55646U 23021U   23250.31598501  .00001550  00000-0  13769-3 0  9998,2 55646  70.0019 330.0532 0003607 267.2773  92.7973 14.98322766 31527,6950.215,96.107,574.587,569.573,0.0
55646.0,STARLINK-5104,PAYLOAD,2023-09-07 09:11:09,14.98326774,0.0003378,70.0017,329.8861,264.8783,95.1991,5.4624e-05,5.59e-06,0.0,0 STARLINK-5104,1 55646U 23021U   23250.38274514  .00000559  00000-0  54624-4 0  9994,2 55646  70.0017 329.8861 0003378 264.8783  95.1991 14.98326774 31839,6950.203,96.107,574.416,569.72,0.0
55646.0,STARLINK-5104,PAYLOAD,2023-09-07 15:35:41,14.98332012,0.0003591,70.0015,329.2104,268.4156,91.6591,-3.8807e-05,-5.56e-06,0.0,0 STARLINK-5104,1 55646U 23021U   23250.64978448 -.00000556  00000-0 -38807-4 0  9994,2 55646  70.0015 329.2104 0003591 268.4156  91.6591 14.98332012 31875,6950.187,96.107,574.547,569.556,0.0
55646.0,STARLINK-5104,PAYLOAD,2023-09-08 10:49:18,14.98331955,0.0003187,70.001,327.1906,272.6881,87.3914,-5.362e-05,-7.33e-06,0.0,0 STARLINK-5104,1 55646U 23021U   23251.45090441 -.00000733  00000-0 -53620-4 0  9999,2 55646  70.0010 327.1906 0003187 272.6881  87.3914 14.98331955 31696,6950.187,96.107,574.267,569.837,0.0
55646.0,STARLINK-5104,PAYLOAD,2023-09-08 14:01:34,14.98332083,0.0003199,70.0011,326.8541,272.768,87.3113,-5.0517e-05,-6.96e-06,0.0,0 STARLINK-5104,1 55646U 23021U   23251.58442409 -.00000696  00000-0 -50517-4 0  9998,2 55646  70.0011 326.8541 0003199 272.7680  87.3113 14.98332083 32010,6950.186,96.107,574.275,569.828,0.0
55646.0,STARLINK-5104,PAYLOAD,2023-09-08 17:13:50,14.98333356,0.0003199,70.0011,326.5174,272.1121,87.9672,-3.5282e-05,-5.14e-06,0.0,0 STARLINK-5104,1 55646U 23021U   23251.71794258 -.00000514  00000-0 -35282-4 0  9996,2 55646  70.0011 326.5174 0003199 272.1121  87.9672 14.98333356 32035,6950.183,96.107,574.271,569.824,0.0
55646.0,STARLINK-5104,PAYLOAD,2023-09-09 10:51:19,14.98326995,0.0003279,70.0008,324.6659,271.868,88.2104,-2.5628e-05,-3.99e-06,0.0,0 STARLINK-5104,1 55646U 23021U   23252.45230659 -.00000399  00000-0 -25628-4 0  9992,2 55646  70.0008 324.6659 0003279 271.8680  88.2104 14.98326995 31846,6950.202,96.107,574.346,569.788,0.0
55646.0,STARLINK-5104,PAYLOAD,2023-09-09 14:03:35,14.98329011,0.0003236,70.0008,324.3293,272.7354,87.3435,4.171e-06,-4.3e-07,0.0,0 STARLINK-5104,1 55646U 23021U   23252.58582471 -.00000043  00000-0  41710-5 0  9994,2 55646  70.0008 324.3293 0003236 272.7354  87.3435 14.98329011 32163,6950.196,96.107,574.31,569.812,0.0
55646.0,STARLINK-5104,PAYLOAD,2023-09-09 22:04:15,14.98332869,0.0003147,70.0004,323.4885,274.7309,85.3491,3.0199e-05,2.67e-06,0.0,0 STARLINK-5104,1 55646U 23021U   23252.91962142  .00000267  00000-0  30199-4 0  9993,2 55646  70.0004 323.4885 0003147 274.7309  85.3491 14.98332869 31916,6950.184,96.107,574.236,569.862,0.0
55646.0,STARLINK-5104,PAYLOAD,2023-09-10 14:05:35,14.98333046,0.0003212,70.0007,321.8055,265.5762,94.5031,4.1748e-05,4.05e-06,0.0,0 STARLINK-5104,1 55646U 23021U   23253.58721988  .00000405  00000-0  41748-4 0  9994,2 55646  70.0007 321.8055 0003212 265.5762  94.5031 14.98333046 32319,6950.183,96.107,574.281,569.816,0.0
55646.0,STARLINK-5104,PAYLOAD,2023-09-10 22:06:16,14.98323934,0.0002453,70.0027,320.9629,272.7041,87.3837,8.6889e-05,9.44e-06,0.0,0 STARLINK-5104,1 55646U 23021U   23253.92102702  .00000944  00000-0  86889-4 0  9992,2 55646  70.0027 320.9629 0002453 272.7041  87.3837 14.98323934 32065,6950.212,96.107,573.782,570.372,0.0
